GLOBALSTAR M084         
1 38040U 11080A   25129.43974791 -.00000075  00000+0  16283-3 0  9993
2 38040  51.9983 166.4356 0000126 318.6564 148.6004 12.62265913617773
GLOBALSTAR M080         
1 38041U 11080B   25129.49916252 -.00000069  00000+0  19288-3 0  9999
2 38041  52.0036 167.8322 0000624  94.1704  53.3566 12.62262735617907
GLOBALSTAR M082         
1 38042U 11080C   25130.13249130 -.00000093  00000+0  61879-4 0  9998
2 38042  52.0052 121.3597 0000593  87.1720 349.8776 12.62266175618864
GLOBALSTAR M092         
1 38043U 11080D   25129.80729251 -.00000091  00000+0  69996-4 0  9994
2 38043  52.0075 212.7256 0000378 125.7836  33.0423 12.62264162617106
GLOBALSTAR M090         
1 38044U 11080E   25129.29398297 -.00000093  00000+0  59879-4 0  9991
2 38044  51.9862 117.7693 0000327  89.0058  16.0703 12.62270144618706
GLOBALSTAR M086         
1 38045U 11080F   25129.93775457 -.00000077  00000+0  15146-3 0  9990
2 38045  51.9875 116.3567 0000663 232.0108 160.3252 12.62270688618733
GLOBALSTAR M097         
1 39072U 13005A   25129.16536871 -.00000104  00000+0 -38330-5 0  9994
2 39072  52.0068  33.2161 0000601  91.7024 268.3911 12.62271874565882
GLOBALSTAR M093         
1 39073U 13005B   25130.16821571 -.00000091  00000+0  72659-4 0  9996
2 39073  51.9835  23.5265 0000696  91.3783 268.7164 12.62264413566080
